[{"OBJECT_NAME":"STARLINK-36528","OBJECT_ID":"2026-008P","EPOCH":"2026-03-09T09:47:55.238208","MEAN_MOTION":15.27610439,"ECCENTRICITY":0.00039298,"INCLINATION":43.0003,"RA_OF_ASC_NODE":206.4144,"ARG_OF_PERICENTER":146.2409,"MEAN_ANOMALY":213.8694,"EPHEMERIS_TYPE":0,"CLASSIFICATION_TYPE":"U","NORAD_CAT_ID":67458,"ELEMENT_SET_NO":999,"REV_AT_EPOCH":953,"BSTAR":0.0012517381,"MEAN_MOTION_DOT":0.00034381,"MEAN_MOTION_DDOT":0},{"OBJECT_NAME":"COSMOS 252 DEB","OBJECT_ID":"1968-097BM","EPOCH":"2026-03-09T19:23:01.251168","MEAN_MOTION":14.84266968,"ECCENTRICITY":0.01906429,"INCLINATION":62.1994,"RA_OF_ASC_NODE":322.7421,"ARG_OF_PERICENTER":219.9576,"MEAN_ANOMALY":138.735,"EPHEMERIS_TYPE":0,"CLASSIFICATION_TYPE":"U","NORAD_CAT_ID":3900,"ELEMENT_SET_NO":999,"REV_AT_EPOCH":87477,"BSTAR":0.00094776544,"MEAN_MOTION_DOT":0.00010849,"MEAN_MOTION_DDOT":0}]
